{
  "type": "FeatureCollection",
  "features": [
    {
      "type": "Feature",
      "properties": {
        "norad_id": 44333,
        "name": "AT&T T-16",
        "group": "intelsat",
        "lat": -0.02675839717000527,
        "lon": -19.100635812720192,
        "alt_km": 35789.56414493843,
        "timestamp": "2025-12-18T23:35:48.715346+00:00",
        "meta_object_name": "AT&T T-16",
        "meta_object_id": "2019-034A",
        "meta_epoch": "2025-12-17T23:07:09.285888",
        "meta_mean_motion": 1.00269567,
        "meta_eccentricity": 7.786e-05,
        "meta_inclination": 0.0259,
        "meta_ra_of_asc_node": 66.0792,
        "meta_arg_of_pericenter": 65.0854,
        "meta_mean_anomaly": 201.5889,
        "meta_ephemeris_type": 0,
        "meta_classification_type": "U",
        "meta_norad_cat_id": 44333,
        "meta_element_set_no": 999,
        "meta_rev_at_epoch": 2381,
        "meta_bstar": 0,
        "meta_mean_motion_dot": -9e-07,
        "meta_mean_motion_ddot": 0,
        "tle_line1": "1 44333U 19034A   25351.96330192 -.00000090  00000+0  00000+0 0  9991",
        "tle_line2": "2 44333   0.0259  66.0792 0000778  65.0854 201.5889  1.00269567 23818"
      },
      "geometry": {
        "type": "Point",
        "coordinates": [
          -19.100635812720192,
          -0.02675839717000527
        ]
      }
    },
    {
      "type": "Feature",
      "properties": {
        "norad_id": 44476,
        "name": "INTELSAT 39 (IS-39)",
        "group": "intelsat",
        "lat": 0.01331527376501581,
        "lon": 143.72162708240907,
        "alt_km": 35781.01117558479,
        "timestamp": "2025-12-18T23:35:48.715358+00:00",
        "meta_object_name": "INTELSAT 39 (IS-39)",
        "meta_object_id": "2019-049B",
        "meta_epoch": "2025-12-18T12:12:55.404576",
        "meta_mean_motion": 1.00271097,
        "meta_eccentricity": 0.00012685,
        "meta_inclination": 0.0008,
        "meta_ra_of_asc_node": 355.5161,
        "meta_arg_of_pericenter": 136.8376,
        "meta_mean_anomaly": 200.1878,
        "meta_ephemeris_type": 0,
        "meta_classification_type": "U",
        "meta_norad_cat_id": 44476,
        "meta_element_set_no": 999,
        "meta_rev_at_epoch": 2331,
        "meta_bstar": 0,
        "meta_mean_motion_dot": 5.9e-07,
        "meta_mean_motion_ddot": 0,
        "tle_line1": "1 44476U 19049B   25352.50897459  .00000059  00000+0  00000+0 0  9994",
        "tle_line2": "2 44476   0.0008 355.5161 0001268 136.8376 200.1878  1.00271097 23314"
      },
      "geometry": {
        "type": "Point",
        "coordinates": [
          143.72162708240907,
          0.01331527376501581
        ]
      }
    },
    {
      "type": "Feature",
      "properties": {
        "norad_id": 46114,
        "name": "GALAXY 30 (G-30)",
        "group": "intelsat",
        "lat": -0.017328883805199362,
        "lon": -43.193507570701634,
        "alt_km": 35779.855822450794,
        "timestamp": "2025-12-18T23:35:48.715370+00:00",
        "meta_object_name": "GALAXY 30 (G-30)",
        "meta_object_id": "2020-056C",
        "meta_epoch": "2025-12-18T14:24:42.759360",
        "meta_mean_motion": 1.00272839,
        "meta_eccentricity": 0.00020166,
        "meta_inclination": 0.0022,
        "meta_ra_of_asc_node": 357.0524,
        "meta_arg_of_pericenter": 273.5592,
        "meta_mean_anomaly": 268.0359,
        "meta_ephemeris_type": 0,
        "meta_classification_type": "U",
        "meta_norad_cat_id": 46114,
        "meta_element_set_no": 999,
        "meta_rev_at_epoch": 1948,
        "meta_bstar": 0,
        "meta_mean_motion_dot": 6.2e-07,
        "meta_mean_motion_ddot": 0,
        "tle_line1": "1 46114U 20056C   25352.60049490  .00000062  00000+0  00000+0 0  9994",
        "tle_line2": "2 46114   0.0022 357.0524 0002016 273.5592 268.0359  1.00272839 19487"
      },
      "geometry": {
        "type": "Point",
        "coordinates": [
          -43.193507570701634,
          -0.017328883805199362
        ]
      }
    },
    {
      "type": "Feature",
      "properties": {
        "norad_id": 54026,
        "name": "GALAXY 33 (G-33)",
        "group": "intelsat",
        "lat": -0.029725964258759653,
        "lon": -51.20280295504294,
        "alt_km": 35781.49038266448,
        "timestamp": "2025-12-18T23:35:48.715382+00:00",
        "meta_object_name": "GALAXY 33 (G-33)",
        "meta_object_id": "2022-128A",
        "meta_epoch": "2025-12-18T14:22:27.973632",
        "meta_mean_motion": 1.00270688,
        "meta_eccentricity": 0.00015507,
        "meta_inclination": 0.0115,
        "meta_ra_of_asc_node": 21.6151,
        "meta_arg_of_pericenter": 245.027,
        "meta_mean_anomaly": 263.4406,
        "meta_ephemeris_type": 0,
        "meta_classification_type": "U",
        "meta_norad_cat_id": 54026,
        "meta_element_set_no": 999,
        "meta_rev_at_epoch": 1193,
        "meta_bstar": 0,
        "meta_mean_motion_dot": 1.04e-06,
        "meta_mean_motion_ddot": 0,
        "tle_line1": "1 54026U 22128A   25352.59893488  .00000104  00000+0  00000+0 0  9996",
        "tle_line2": "2 54026   0.0115  21.6151 0001550 245.0270 263.4406  1.00270688 11934"
      },
      "geometry": {
        "type": "Point",
        "coordinates": [
          -51.20280295504294,
          -0.029725964258759653
        ]
      }
    },
    {
      "type": "Feature",
      "properties": {
        "norad_id": 54027,
        "name": "GALAXY 34 (G-34)",
        "group": "intelsat",
        "lat": -0.029722038237767524,
        "lon": -47.12178050349248,
        "alt_km": 35781.80192420923,
        "timestamp": "2025-12-18T23:35:48.715394+00:00",
        "meta_object_name": "GALAXY 34 (G-34)",
        "meta_object_id": "2022-128B",
        "meta_epoch": "2025-12-18T02:27:22.645152",
        "meta_mean_motion": 1.00271871,
        "meta_eccentricity": 0.00015543,
        "meta_inclination": 0.0227,
        "meta_ra_of_asc_node": 349.9987,
        "meta_arg_of_pericenter": 272.3331,
        "meta_mean_anomaly": 92.5663,
        "meta_ephemeris_type": 0,
        "meta_classification_type": "U",
        "meta_norad_cat_id": 54027,
        "meta_element_set_no": 999,
        "meta_rev_at_epoch": 1209,
        "meta_bstar": 0,
        "meta_mean_motion_dot": 0,
        "meta_mean_motion_ddot": 0,
        "tle_line1": "1 54027U 22128B   25352.10234543  .00000000  00000+0  00000+0 0  9990",
        "tle_line2": "2 54027   0.0227 349.9987 0001554 272.3331  92.5663  1.00271871 12096"
      },
      "geometry": {
        "type": "Point",
        "coordinates": [
          -47.12178050349248,
          -0.029722038237767524
        ]
      }
    },
    {
      "type": "Feature",
      "properties": {
        "norad_id": 54243,
        "name": "GALAXY 31 (G-31)",
        "group": "intelsat",
        "lat": -0.028033133795306153,
        "lon": -39.192039903876456,
        "alt_km": 35780.780042235325,
        "timestamp": "2025-12-18T23:35:48.715406+00:00",
        "meta_object_name": "GALAXY 31 (G-31)",
        "meta_object_id": "2022-153A",
        "meta_epoch": "2025-12-17T23:01:24.835872",
        "meta_mean_motion": 1.00272955,
        "meta_eccentricity": 0.00014763,
        "meta_inclination": 0.0201,
        "meta_ra_of_asc_node": 61.1957,
        "meta_arg_of_pericenter": 221.7333,
        "meta_mean_anomaly": 28.2661,
        "meta_ephemeris_type": 0,
        "meta_classification_type": "U",
        "meta_norad_cat_id": 54243,
        "meta_element_set_no": 999,
        "meta_rev_at_epoch": 531,
        "meta_bstar": 0,
        "meta_mean_motion_dot": 3.8e-07,
        "meta_mean_motion_ddot": 0,
        "tle_line1": "1 54243U 22153A   25351.95931523  .00000038  00000+0  00000+0 0  9993",
        "tle_line2": "2 54243   0.0201  61.1957 0001476 221.7333  28.2661  1.00272955  5316"
      },
      "geometry": {
        "type": "Point",
        "coordinates": [
          -39.192039903876456,
          -0.028033133795306153
        ]
      }
    },
    {
      "type": "Feature",
      "properties": {
        "norad_id": 54244,
        "name": "GALAXY 32 (G-32)",
        "group": "intelsat",
        "lat": 0.00460560815153019,
        "lon": -9.206870643378346,
        "alt_km": 35777.04597190965,
        "timestamp": "2025-12-18T23:35:48.715418+00:00",
        "meta_object_name": "GALAXY 32 (G-32)",
        "meta_object_id": "2022-153B",
        "meta_epoch": "2025-12-17T04:19:59.261664",
        "meta_mean_motion": 1.00271531,
        "meta_eccentricity": 0.000259,
        "meta_inclination": 0.0104,
        "meta_ra_of_asc_node": 339.7375,
        "meta_arg_of_pericenter": 338.8221,
        "meta_mean_anomaly": 101.4983,
        "meta_ephemeris_type": 0,
        "meta_classification_type": "U",
        "meta_norad_cat_id": 54244,
        "meta_element_set_no": 999,
        "meta_rev_at_epoch": 1131,
        "meta_bstar": 0,
        "meta_mean_motion_dot": -1.5e-06,
        "meta_mean_motion_ddot": 0,
        "tle_line1": "1 54244U 22153B   25351.18054701 -.00000150  00000+0  00000+0 0  9999",
        "tle_line2": "2 54244   0.0104 339.7375 0002590 338.8221 101.4983  1.00271531 11318"
      },
      "geometry": {
        "type": "Point",
        "coordinates": [
          -9.206870643378346,
          0.00460560815153019
        ]
      }
    }
  ]
}